GPS BIIR-2  (PRN 13)    
1 24876U 97035A   24351.75888021 -.00000001  00000+0  00000+0 0  9995
2 24876  55.7350 119.9918 0086215  54.9046 305.8588  2.00562015200776
GPS BIIR-4  (PRN 20)    
1 26360U 00025A   24351.14616552 -.00000079  00000+0  00000+0 0  9994
2 26360  54.8064  41.4799 0040012 224.6739 143.4553  2.00565516180273
GPS BIIR-5  (PRN 22)    
1 26407U 00040A   24350.87279218  .00000036  00000+0  00000+0 0  9998
2 26407  54.9970 236.9566 0138226 297.6505  70.1473  2.00562755178952
GPS BIIR-8  (PRN 16)    
1 27663U 03005A   24351.67812500  .00000029  00000+0  00000+0 0  9995
2 27663  55.0334 236.7355 0141988  48.7460 321.6656  2.00564466160321
GPS BIIR-9  (PRN 21)    
1 27704U 03010A   24351.60566448 -.00000095  00000+0  00000+0 0  9991
2 27704  55.0554 346.4227 0258894 332.2869 201.4623  2.00569257159114
GPS BIIR-11 (PRN 19)    
1 28190U 04009A   24350.69659392 -.00000064  00000+0  00000+0 0  9995
2 28190  55.2985 297.7774 0098796 155.5759  18.4414  2.00572591151948
GPS BIIR-13 (PRN 02)    
1 28474U 04045A   24351.46561094 -.00000095  00000+0  00000+0 0  9991
2 28474  55.3854 346.9094 0166930 297.9841 117.9628  2.00563068147430
GPS BIIRM-1 (PRN 17)    
1 28874U 05038A   24350.92617096 -.00000060  00000+0  00000+0 0  9994
2 28874  55.3433 295.2351 0136515 287.7040  78.7861  2.00573077140834
GPS BIIRM-2 (PRN 31)    
1 29486U 06042A   24349.63583389  .00000081  00000+0  00000+0 0  9995
2 29486  54.6789 173.1372 0105576  44.0255  10.6846  2.00571591133370
GPS BIIRM-3 (PRN 12)    
1 29601U 06052A   24349.97956783  .00000044  00000+0  00000+0 0  9993
2 29601  55.0700 235.7938 0087089  83.5771 277.4990  2.00550974132430
GPS BIIRM-4 (PRN 15)    
1 32260U 07047A   24350.78733758 -.00000030  00000+0  00000+0 0  9995
2 32260  53.7119 102.7279 0159337  79.1393 282.6172  2.00555771125816
GPS BIIRM-5 (PRN 29)    
1 32384U 07062A   24350.86154611 -.00000061  00000+0  00000+0 0  9997
2 32384  55.4866 296.1280 0027738 156.4307  25.2352  2.00556777124518
GPS BIIRM-6 (PRN 07)    
1 32711U 08012A   24351.69524397  .00000053  00000+0  00000+0 0  9991
2 32711  54.4551 171.7739 0190435 240.6316 117.4701  2.00552292122776
GPS BIIRM-8 (PRN 05)    
1 35752U 09043A   24350.92116183 -.00000073  00000+0  00000+0 0  9992
2 35752  55.8217  49.0720 0053964  75.8085  96.4151  2.00558786112364
GPS BIIF-1  (PRN 25)    
1 36585U 10022A   24351.27192089  .00000040  00000+0  00000+0 0  9997
2 36585  54.3865 230.6515 0120150  62.7583 120.0248  2.00560716106597
GPS BIIF-3  (PRN 24)    
1 38833U 12053A   24350.88390333  .00000055  00000+0  00000+0 0  9995
2 38833  53.5251 166.0429 0161933  59.0998 302.4923  2.00560959 88442
GPS BIIF-4  (PRN 27)    
1 39166U 13023A   24351.24456577 -.00000054  00000+0  00000+0 0  9997
2 39166  54.9564 291.2313 0128682  45.3141 315.7271  2.00562189 84883
GPS BIIF-5  (PRN 30)    
1 39533U 14008A   24350.74313380  .00000062  00000+0  00000+0 0  9995
2 39533  53.6055 171.6739 0073443 220.4869 138.9872  2.00552481 78689
GPS BIIF-6  (PRN 06)    
1 39741U 14026A   24350.52745034 -.00000089  00000+0  00000+0 0  9997
2 39741  56.6895 352.8385 0035504 314.3546  45.3772  2.00555357 77534
GPS BIIF-7  (PRN 09)    
1 40105U 14045A   24350.60922362 -.00000019  00000+0  00000+0 0  9997
2 40105  55.0190 110.3582 0029419 118.2534 242.0068  2.00578079 75070
GPS BIIF-8  (PRN 03)    
1 40294U 14068A   24350.48944719 -.00000071  00000+0  00000+0 0  9995
2 40294  56.5735  52.1808 0054372  64.9631 295.6516  2.00571270 74207
GPS BIIF-9  (PRN 26)    
1 40534U 15013A   24350.62297899  .00000050  00000+0  00000+0 0  9995
2 40534  53.2846 226.8813 0095814  32.9246 327.7620  2.00554573 70824
GPS BIIF-10 (PRN 08)    
1 40730U 15033A   24350.78399168 -.00000053  00000+0  00000+0 0  9998
2 40730  54.4380 289.6334 0100789  21.1933 339.2217  2.00557427 68990
GPS BIIF-11 (PRN 10)    
1 41019U 15062A   24351.34248225 -.00000070  00000+0  00000+0 0  9990
2 41019  56.5527  52.0028 0102224 226.6434 132.5523  2.00562836 66849
GPS BIIF-12 (PRN 32)    
1 41328U 16007A   24348.43465758 -.00000009  00000+0  00000+0 0  9993
2 41328  55.2072 111.3279 0083574 239.2810 119.8588  2.00552943 64793
GPS BIII-1  (PRN 04)    
1 43873U 18109A   24350.81630315 -.00000013  00000+0  00000+0 0  9998
2 43873  55.3764 113.8484 0032392 193.2171 339.1595  2.00562479 44074
GPS BIII-2  (PRN 18)    
1 44506U 19056A   24350.44974442 -.00000091  00000+0  00000+0 0  9991
2 44506  55.8231 352.9106 0048678 194.5126 337.2475  2.00558477 39058
GPS BIII-3  (PRN 23)    
1 45854U 20041A   24348.54061020 -.00000075  00000+0  00000+0 0  9993
2 45854  56.2708  50.3954 0050150 197.3863 335.1271  2.00569239 32991
GPS BIII-4  (PRN 14)    
1 46826U 20078A   24350.07095723  .00000046  00000+0  00000+0 0  9998
2 46826  54.1150 233.0616 0051526 198.3062 332.4181  2.00559943 30487
GPS BIII-5  (PRN 11)    
1 48859U 21054A   24350.65726128 -.00000092  00000+0  00000+0 0  9997
2 48859  55.3521 354.4697 0019492 229.5001 189.9317  2.00574023 25759
GPS BIII-6  (PRN 28)    
1 55268U 23009A   24348.58094234  .00000097  00000+0  00000+0 0  9990
2 55268  55.0880 170.1345 0002386  74.0172 326.1779  2.00551231 14194
